{
  "type": "FeatureCollection",
  "features": [
    {
      "type": "Feature",
      "properties": {
        "norad_id": 35915,
        "name": "IRIDIUM 33 DEB",
        "group": "iridium-33-debris",
        "lat": 61.672038771684115,
        "lon": 160.91739632047774,
        "alt_km": 624.9282340556201,
        "timestamp": "2025-12-02T07:10:09.501601+00:00",
        "meta_object_name": "IRIDIUM 33 DEB",
        "meta_object_id": "1997-051TY",
        "meta_epoch": "2025-12-01T19:16:49.071072",
        "meta_mean_motion": 14.80276921,
        "meta_eccentricity": 0.0009695,
        "meta_inclination": 86.3446,
        "meta_ra_of_asc_node": 347.9542,
        "meta_arg_of_pericenter": 230.6927,
        "meta_mean_anomaly": 129.3435,
        "meta_ephemeris_type": 0,
        "meta_classification_type": "U",
        "meta_norad_cat_id": 35915,
        "meta_element_set_no": 999,
        "meta_rev_at_epoch": 7924,
        "meta_bstar": 0.0016582,
        "meta_mean_motion_dot": 0.00012667,
        "meta_mean_motion_ddot": 0,
        "tle_line1": "1 35915U 97051TY  25335.80334573  .00012667  00000+0  16582-2 0  9991",
        "tle_line2": "2 35915  86.3446 347.9542 0009695 230.6927 129.3435 14.80276921 79247"
      },
      "geometry": {
        "type": "Point",
        "coordinates": [
          160.91739632047774,
          61.672038771684115
        ]
      }
    },
    {
      "type": "Feature",
      "properties": {
        "norad_id": 35918,
        "name": "IRIDIUM 33 DEB",
        "group": "iridium-33-debris",
        "lat": -64.74844136255619,
        "lon": 72.6252850934217,
        "alt_km": 729.782871962715,
        "timestamp": "2025-12-02T07:10:09.501611+00:00",
        "meta_object_name": "IRIDIUM 33 DEB",
        "meta_object_id": "1997-051UB",
        "meta_epoch": "2025-11-30T01:41:55.281408",
        "meta_mean_motion": 14.51050885,
        "meta_eccentricity": 0.00264066,
        "meta_inclination": 86.4001,
        "meta_ra_of_asc_node": 81.2516,
        "meta_arg_of_pericenter": 211.3482,
        "meta_mean_anomaly": 332.4953,
        "meta_ephemeris_type": 0,
        "meta_classification_type": "U",
        "meta_norad_cat_id": 35918,
        "meta_element_set_no": 999,
        "meta_rev_at_epoch": 85023,
        "meta_bstar": 0.0014523463,
        "meta_mean_motion_dot": 5.795e-05,
        "meta_mean_motion_ddot": 0,
        "tle_line1": "1 35918U 97051UB  25334.07077872  .00005795  00000+0  14523-2 0  9995",
        "tle_line2": "2 35918  86.4001  81.2516 0026406 211.3482 332.4953 14.51050885850233"
      },
      "geometry": {
        "type": "Point",
        "coordinates": [
          72.6252850934217,
          -64.74844136255619
        ]
      }
    },
    {
      "type": "Feature",
      "properties": {
        "norad_id": 35929,
        "name": "IRIDIUM 33 DEB",
        "group": "iridium-33-debris",
        "lat": -56.97423813355144,
        "lon": -48.083201851792055,
        "alt_km": 577.1899042535115,
        "timestamp": "2025-12-02T07:10:09.501622+00:00",
        "meta_object_name": "IRIDIUM 33 DEB",
        "meta_object_id": "1997-051UN",
        "meta_epoch": "2025-12-01T05:49:41.273184",
        "meta_mean_motion": 15.01229794,
        "meta_eccentricity": 0.0019443,
        "meta_inclination": 86.3342,
        "meta_ra_of_asc_node": 318.0763,
        "meta_arg_of_pericenter": 68.9233,
        "meta_mean_anomaly": 291.4076,
        "meta_ephemeris_type": 0,
        "meta_classification_type": "U",
        "meta_norad_cat_id": 35929,
        "meta_element_set_no": 999,
        "meta_rev_at_epoch": 87607,
        "meta_bstar": 0.0032142,
        "meta_mean_motion_dot": 0.0004164,
        "meta_mean_motion_ddot": 0,
        "tle_line1": "1 35929U 97051UN  25335.24283881  .00041640  00000+0  32142-2 0  9992",
        "tle_line2": "2 35929  86.3342 318.0763 0019443  68.9233 291.4076 15.01229794876073"
      },
      "geometry": {
        "type": "Point",
        "coordinates": [
          -48.083201851792055,
          -56.97423813355144
        ]
      }
    },
    {
      "type": "Feature",
      "properties": {
        "norad_id": 36011,
        "name": "IRIDIUM 33 DEB",
        "group": "iridium-33-debris",
        "lat": -4.867851042009638,
        "lon": 39.59653391665202,
        "alt_km": 760.1467053740535,
        "timestamp": "2025-12-02T07:10:09.501632+00:00",
        "meta_object_name": "IRIDIUM 33 DEB",
        "meta_object_id": "1997-051US",
        "meta_epoch": "2025-11-27T22:48:02.153088",
        "meta_mean_motion": 14.41259363,
        "meta_eccentricity": 0.0016688,
        "meta_inclination": 86.3418,
        "meta_ra_of_asc_node": 41.7752,
        "meta_arg_of_pericenter": 268.8947,
        "meta_mean_anomaly": 217.0188,
        "meta_ephemeris_type": 0,
        "meta_classification_type": "U",
        "meta_norad_cat_id": 36011,
        "meta_element_set_no": 999,
        "meta_rev_at_epoch": 64327,
        "meta_bstar": 0.00058853,
        "meta_mean_motion_dot": 1.923e-05,
        "meta_mean_motion_ddot": 0,
        "tle_line1": "1 36011U 97051US  25331.95002492  .00001923  00000+0  58853-3 0  9994",
        "tle_line2": "2 36011  86.3418  41.7752 0016688 268.8947 217.0188 14.41259363643279"
      },
      "geometry": {
        "type": "Point",
        "coordinates": [
          39.59653391665202,
          -4.867851042009638
        ]
      }
    },
    {
      "type": "Feature",
      "properties": {
        "norad_id": 36012,
        "name": "IRIDIUM 33 DEB",
        "group": "iridium-33-debris",
        "lat": 49.36627661809118,
        "lon": -44.09806414339823,
        "alt_km": 883.0000449535528,
        "timestamp": "2025-12-02T07:10:09.501643+00:00",
        "meta_object_name": "IRIDIUM 33 DEB",
        "meta_object_id": "1997-051UT",
        "meta_epoch": "2025-11-30T09:13:21.766944",
        "meta_mean_motion": 14.18317732,
        "meta_eccentricity": 0.02146731,
        "meta_inclination": 86.4437,
        "meta_ra_of_asc_node": 312.5163,
        "meta_arg_of_pericenter": 303.0455,
        "meta_mean_anomaly": 55.0272,
        "meta_ephemeris_type": 0,
        "meta_classification_type": "U",
        "meta_norad_cat_id": 36012,
        "meta_element_set_no": 999,
        "meta_rev_at_epoch": 65309,
        "meta_bstar": 0.0080758053,
        "meta_mean_motion_dot": 0.00020957,
        "meta_mean_motion_ddot": 0,
        "tle_line1": "1 36012U 97051UT  25334.38427971  .00020957  00000+0  80758-2 0  9994",
        "tle_line2": "2 36012  86.4437 312.5163 0214673 303.0455  55.0272 14.18317732653091"
      },
      "geometry": {
        "type": "Point",
        "coordinates": [
          -44.09806414339823,
          49.36627661809118
        ]
      }
    },
    {
      "type": "Feature",
      "properties": {
        "norad_id": 36028,
        "name": "IRIDIUM 33 DEB",
        "group": "iridium-33-debris",
        "lat": 28.513288718930124,
        "lon": 129.603045178613,
        "alt_km": 576.9551060446965,
        "timestamp": "2025-12-02T07:10:09.501653+00:00",
        "meta_object_name": "IRIDIUM 33 DEB",
        "meta_object_id": "1997-051VK",
        "meta_epoch": "2025-12-01T16:02:00.587040",
        "meta_mean_motion": 14.94442406,
        "meta_eccentricity": 0.0022112,
        "meta_inclination": 86.3212,
        "meta_ra_of_asc_node": 311.9023,
        "meta_arg_of_pericenter": 86.0003,
        "meta_mean_anomaly": 274.3753,
        "meta_ephemeris_type": 0,
        "meta_classification_type": "U",
        "meta_norad_cat_id": 36028,
        "meta_element_set_no": 999,
        "meta_rev_at_epoch": 86959,
        "meta_bstar": 0.0022069,
        "meta_mean_motion_dot": 0.00023977,
        "meta_mean_motion_ddot": 0,
        "tle_line1": "1 36028U 97051VK  25335.66806235  .00023977  00000+0  22069-2 0  9993",
        "tle_line2": "2 36028  86.3212 311.9023 0022112  86.0003 274.3753 14.94442406869593"
      },
      "geometry": {
        "type": "Point",
        "coordinates": [
          129.603045178613,
          28.513288718930124
        ]
      }
    },
    {
      "type": "Feature",
      "properties": {
        "norad_id": 36080,
        "name": "IRIDIUM 33 DEB",
        "group": "iridium-33-debris",
        "lat": 22.845025198790385,
        "lon": 14.089166625136599,
        "alt_km": 748.5214329979617,
        "timestamp": "2025-12-02T07:10:09.501663+00:00",
        "meta_object_name": "IRIDIUM 33 DEB",
        "meta_object_id": "1997-051VM",
        "meta_epoch": "2025-11-30T20:11:56.294592",
        "meta_mean_motion": 14.46521856,
        "meta_eccentricity": 0.0017024,
        "meta_inclination": 86.3209,
        "meta_ra_of_asc_node": 13.1702,
        "meta_arg_of_pericenter": 195.0829,
        "meta_mean_anomaly": 164.9869,
        "meta_ephemeris_type": 0,
        "meta_classification_type": "U",
        "meta_norad_cat_id": 36080,
        "meta_element_set_no": 999,
        "meta_rev_at_epoch": 47242,
        "meta_bstar": 0.00064307245,
        "meta_mean_motion_dot": 2.338e-05,
        "meta_mean_motion_ddot": 0,
        "tle_line1": "1 36080U 97051VM  25334.84162378  .00002338  00000+0  64307-3 0  9993",
        "tle_line2": "2 36080  86.3209  13.1702 0017024 195.0829 164.9869 14.46521856472423"
      },
      "geometry": {
        "type": "Point",
        "coordinates": [
          14.089166625136599,
          22.845025198790385
        ]
      }
    }
  ]
}